[{"OBJECT_NAME":"STARLINK-36167","OBJECT_ID":"2025-293J","EPOCH":"2026-03-09T16:00:03.000096","MEAN_MOTION":14.98353371,"ECCENTRICITY":0.00035327,"INCLINATION":69.9998,"RA_OF_ASC_NODE":94.3623,"ARG_OF_PERICENTER":273.6486,"MEAN_ANOMALY":249.1448,"EPHEMERIS_TYPE":0,"CLASSIFICATION_TYPE":"U","NORAD_CAT_ID":67011,"ELEMENT_SET_NO":999,"REV_AT_EPOCH":533,"BSTAR":-0.0036450478,"MEAN_MOTION_DOT":-0.00043345,"MEAN_MOTION_DDOT":0},{"OBJECT_NAME":"COSMOS 2251 DEB","OBJECT_ID":"1993-036NZ","EPOCH":"2026-03-09T21:15:03.836448","MEAN_MOTION":14.91859868,"ECCENTRICITY":0.00323485,"INCLINATION":73.9961,"RA_OF_ASC_NODE":356.9153,"ARG_OF_PERICENTER":157.6141,"MEAN_ANOMALY":263.4728,"EPHEMERIS_TYPE":0,"CLASSIFICATION_TYPE":"U","NORAD_CAT_ID":34327,"ELEMENT_SET_NO":999,"REV_AT_EPOCH":90806,"BSTAR":0.0014341536,"MEAN_MOTION_DOT":0.00014628,"MEAN_MOTION_DDOT":0}]
